{
  "norad_id": 68782,
  "name": "STARLINK-37390",
  "history": [
    {
      "epoch": "2026-04-27T13:25:55.081920Z",
      "apogee_km": 285.995241468715,
      "perigee_km": 284.3693915554859,
      "latitude_deg": 5.753981785231077e-05,
      "longitude_deg": 95.96495135904708,
      "height_km": 287.69258959852846,
      "semi_major_axis_km": 6663.3193165121,
      "eccentricity": 0.000122,
      "inclination_deg": 97.2783,
      "raan_deg": 152.9922,
      "arg_perigee_deg": 32.5694,
      "mean_anomaly_deg": 327.5658,
      "mean_motion_rev_day": 15.96124718
    }
  ]
}