STARLINK-37390          
1 68782U 26086S   26117.55966530 -.00720025  17043-3 -17617-2 0  9999
2 68782  97.2783 152.9922 0001220  32.5694 327.5658 15.96124718  1183
